NORAD_CAT_ID,OBJECT_NAME,OBJECT_TYPE,EPOCH,MEAN_MOTION,ECCENTRICITY,INCLINATION,RA_OF_ASC_NODE,ARG_OF_PERICENTER,MEAN_ANOMALY,BSTAR,MEAN_MOTION_DOT,MEAN_MOTION_DDOT,TLE_LINE0,TLE_LINE1,TLE_LINE2,SEMIMAJOR_AXIS,PERIOD,APOGEE,PERIGEE,DECAYED
53568.0,STARLINK-4583,PAYLOAD,2023-09-17 02:13:44,15.08845142,0.0001264,53.2172,154.8808,96.2544,263.8592,0.00011146,1.487e-05,0.0,0 STARLINK-4583,1 53568U 22101AT  23260.09287129  .00001487  00000-0  11146-3 0  9990,2 53568  53.2172 154.8808 0001264  96.2544 263.8592 15.08845142 59889,6917.865,95.437,540.604,538.855,0.0
53568.0,STARLINK-4583,PAYLOAD,2023-09-18 02:04:30,15.08855794,0.0001328,53.2168,150.4208,85.2639,274.8504,9.4784e-05,1.222e-05,0.0,0 STARLINK-4583,1 53568U 22101AT  23261.08646357  .00001222  00000-0  94784-4 0  9999,2 53568  53.2168 150.4208 0001328  85.2639 274.8504 15.08855794 60728,6917.832,95.437,540.616,538.778,0.0
53568.0,STARLINK-4583,PAYLOAD,2023-09-18 21:09:08,15.08841703,0.0001403,53.2181,146.8488,105.5387,254.5761,5.0457e-05,5.15e-06,0.0,0 STARLINK-4583,1 53568U 22101AT  23261.88135405  .00000515  00000-0  50457-4 0  9997,2 53568  53.2181 146.8488 0001403 105.5387 254.5761 15.08841703 60840,6917.875,95.437,540.711,538.77,0.0
53568.0,STARLINK-4583,PAYLOAD,2023-09-19 01:55:18,15.08844203,0.0001346,53.2162,145.9575,104.3441,255.7701,0.00010572,1.395e-05,0.0,0 STARLINK-4583,1 53568U 22101AT  23262.08007101  .00001395  00000-0  10572-3 0  9991,2 53568  53.2162 145.9575 0001346 104.3441 255.7701 15.08844203 60182,6917.868,95.437,540.664,538.801,0.0
53568.0,STARLINK-4583,PAYLOAD,2023-09-20 01:46:04,15.08861884,0.0001384,53.2159,141.4973,104.1449,255.9697,0.0004044,6.158e-05,0.0,0 STARLINK-4583,1 53568U 22101AT  23263.07365972  .00006158  00000-0  40440-3 0  9993,2 53568  53.2159 141.4973 0001384 104.1449 255.9697 15.08861884 60336,6917.813,95.436,540.636,538.721,0.0
53568.0,STARLINK-4583,PAYLOAD,2023-09-20 19:15:20,15.08825239,0.0001328,53.2164,138.2262,94.8097,265.3047,-0.00025706,-4.375e-05,0.0,0 STARLINK-4583,1 53568U 22101AT  23263.80231714 -.00004375  00000-0 -25706-3 0  9999,2 53568  53.2164 138.2262 0001328  94.8097 265.3047 15.08825239 60449,6917.926,95.438,540.709,538.872,0.0
53568.0,STARLINK-4583,PAYLOAD,2023-09-20 20:50:43,15.08823853,0.0001596,53.2161,137.9296,106.3799,253.7369,-0.00029648,-5.001e-05,0.0,0 STARLINK-4583,1 53568U 22101AT  23263.86855760 -.00005001  00000-0 -29648-3 0  9994,2 53568  53.2161 137.9296 0001596 106.3799 253.7369 15.08823853 61140,6917.93,95.439,540.899,538.691,0.0
53568.0,STARLINK-4583,PAYLOAD,2023-09-21 00:01:29,15.08822525,0.00015,53.2164,137.3352,101.922,258.194,-0.0002592,-4.409e-05,0.0,0 STARLINK-4583,1 53568U 22101AT  23264.00103986 -.00004409  00000-0 -25920-3 0  9997,2 53568  53.2164 137.3352 0001500 101.9220 258.1940 15.08822525 61166,6917.934,95.439,540.836,538.761,0.0
53568.0,STARLINK-4583,PAYLOAD,2023-09-21 22:16:54,15.08837009,0.0001513,53.2157,133.1747,92.424,267.6925,0.00072967,0.00011343,0.0,0 STARLINK-4583,1 53568U 22101AT  23264.92840929  .00011343  00000-0  72967-3 0  9999,2 53568  53.2157 133.1747 0001513  92.4240 267.6925 15.08837009 61307,6917.89,95.438,540.801,538.708,0.0
53568.0,STARLINK-4583,PAYLOAD,2023-09-21 23:52:17,15.08841325,0.0001599,53.2162,132.8776,94.6235,265.4939,0.00084301,0.00013154,0.0,0 STARLINK-4583,1 53568U 22101AT  23264.99464891  .00013154  00000-0  84301-3 0  9993,2 53568  53.2162 132.8776 0001599  94.6235 265.4939 15.08841325 60624,6917.876,95.437,540.848,538.635,0.0
53568.0,STARLINK-4583,PAYLOAD,2023-09-22 22:07:40,15.0886061,0.0001592,53.2165,128.715,95.9593,264.158,0.00069371,0.00010776,0.0,0 STARLINK-4583,1 53568U 22101AT  23265.92200228  .00010776  00000-0  69371-3 0  9996,2 53568  53.2165 128.7150 0001592  95.9593 264.1580 15.08860610 61459,6917.817,95.436,540.784,538.581,0.0
53568.0,STARLINK-4583,PAYLOAD,2023-09-23 18:47:41,15.08848333,0.0001313,53.2164,124.8503,94.8337,265.2805,0.00028319,4.223e-05,0.0,0 STARLINK-4583,1 53568U 22101AT  23266.78312139  .00004223  00000-0  28319-3 0  9993,2 53568  53.2164 124.8503 0001313  94.8337 265.2805 15.08848333 60899,6917.855,95.437,540.628,538.812,0.0
53568.0,STARLINK-4583,PAYLOAD,2023-09-23 23:33:51,15.08847757,0.0001234,53.216,123.9571,90.2203,269.893,0.0001464,2.043e-05,0.0,0 STARLINK-4583,1 53568U 22101AT  23266.98184100  .00002043  00000-0  14640-3 0  9990,2 53568  53.2160 123.9571 0001234  90.2203 269.8930 15.08847757 61613,6917.857,95.437,540.575,538.868,0.0
53568.0,STARLINK-4583,PAYLOAD,2023-09-24 18:38:28,15.08842278,0.0001129,53.2153,120.3885,77.0422,283.0696,3.0283e-05,1.94e-06,0.0,0 STARLINK-4583,1 53568U 22101AT  23267.77672186  .00000194  00000-0  30283-4 0  9991,2 53568  53.2153 120.3885 0001129  77.0422 283.0696 15.08842278 61040,6917.873,95.437,540.519,538.957,0.0
53568.0,STARLINK-4583,PAYLOAD,2023-09-24 21:49:15,15.08844714,0.0001263,53.216,119.7926,77.3206,282.7927,7.9986e-05,9.85e-06,0.0,0 STARLINK-4583,1 53568U 22101AT  23267.90920152  .00000985  00000-0  79986-4 0  9996,2 53568  53.2160 119.7926 0001263  77.3206 282.7927 15.08844714 61756,6917.866,95.437,540.605,538.857,0.0
53568.0,STARLINK-4583,PAYLOAD,2023-09-25 07:21:33,15.08850477,0.0001125,53.2153,118.0082,89.3897,270.7224,5.695e-05,6.19e-06,0.0,0 STARLINK-4583,1 53568U 22101AT  23268.30663773  .00000619  00000-0  56950-4 0  9994,2 53568  53.2153 118.0082 0001125  89.3897 270.7224 15.08850477 61816,6917.848,95.437,540.492,538.935,0.0
53568.0,STARLINK-4583,PAYLOAD,2023-09-25 21:40:01,15.08854025,0.0001105,53.2159,115.3295,109.2747,250.8365,0.00022752,3.336e-05,0.0,0 STARLINK-4583,1 53568U 22101AT  23268.90279418  .00003336  00000-0  22752-3 0  9990,2 53568  53.2159 115.3295 0001105 109.2747 250.8365 15.08854025 61900,6917.838,95.437,540.467,538.938,0.0
53568.0,STARLINK-4583,PAYLOAD,2023-09-26 13:33:53,15.08834183,0.0001169,53.2153,112.3563,94.4,265.7126,-2.7134e-05,-7.2e-06,0.0,0 STARLINK-4583,1 53568U 22101AT  23269.56520598 -.00000720  00000-0 -27134-4 0  9997,2 53568  53.2153 112.3563 0001169  94.4000 265.7126 15.08834183 62001,6917.898,95.438,540.572,538.954,0.0
53568.0,STARLINK-4583,PAYLOAD,2023-09-26 18:20:03,15.08836023,0.0001234,53.2145,111.4643,95.1105,265.0028,3.579e-05,2.82e-06,0.0,0 STARLINK-4583,1 53568U 22101AT  23269.76392616  .00000282  00000-0  35790-4 0  9995,2 53568  53.2145 111.4643 0001234  95.1105 265.0028 15.08836023 61343,6917.893,95.438,540.611,538.904,0.0
53568.0,STARLINK-4583,PAYLOAD,2023-09-26 19:55:26,15.08836603,0.0001283,53.2146,111.1669,95.4246,264.6892,5.3347e-05,5.61e-06,0.0,0 STARLINK-4583,1 53568U 22101AT  23269.83016631  .00000561  00000-0  53347-4 0  9991,2 53568  53.2146 111.1669 0001283  95.4246 264.6892 15.08836603 62048,6917.891,95.438,540.643,538.868,0.0
53568.0,STARLINK-4583,PAYLOAD,2023-09-27 07:03:08,15.08837191,0.0001241,53.2149,109.0852,99.2109,260.9023,0.00010324,1.355e-05,0.0,0 STARLINK-4583,1 53568U 22101AT  23270.29384779  .00001355  00000-0  10324-3 0  9993,2 53568  53.2149 109.0852 0001241  99.2109 260.9023 15.08837191 62111,6917.889,95.438,540.612,538.895,0.0
53568.0,STARLINK-4583,PAYLOAD,2023-09-27 22:56:59,15.08842955,0.0001437,53.2156,106.1122,100.1456,259.9698,0.00028216,4.206e-05,0.0,0 STARLINK-4583,1 53568U 22101AT  23270.95624874  .00004206  00000-0  28216-3 0  9996,2 53568  53.2156 106.1122 0001437 100.1456 259.9698 15.08842955 61525,6917.871,95.437,540.73,538.742,0.0
53568.0,STARLINK-4583,PAYLOAD,2023-09-28 13:15:28,15.08844308,0.0001508,53.2157,103.4351,96.5536,263.5628,0.0002651,3.934e-05,0.0,0 STARLINK-4583,1 53568U 22101AT  23271.55240872  .00003934  00000-0  26510-3 0  9997,2 53568  53.2157 103.4351 0001508  96.5536 263.5628 15.08844308 62301,6917.867,95.437,540.775,538.689,0.0
53568.0,STARLINK-4583,PAYLOAD,2023-09-28 19:37:00,15.08849247,0.000148,53.2157,102.2458,96.0512,264.0649,0.00031119,4.669e-05,0.0,0 STARLINK-4583,1 53568U 22101AT  23271.81736611  .00004669  00000-0  31119-3 0  9994,2 53568  53.2157 102.2458 0001480  96.0512 264.0649 15.08849247 62344,6917.852,95.437,540.741,538.693,0.0
53568.0,STARLINK-4583,PAYLOAD,2023-09-29 11:30:51,15.0884595,0.0001541,53.2158,99.2731,94.458,265.6588,0.00011727,1.579e-05,0.0,0 STARLINK-4583,1 53568U 22101AT  23272.47976514  .00001579  00000-0  11727-3 0  9995,2 53568  53.2158  99.2731 0001541  94.4580 265.6588 15.08845950 61759,6917.862,95.437,540.793,538.661,0.0
53568.0,STARLINK-4583,PAYLOAD,2023-09-29 13:06:14,15.08846153,0.0001541,53.2158,98.9755,95.9627,264.154,0.00011009,1.465e-05,0.0,0 STARLINK-4583,1 53568U 22101AT  23272.54600467  .00001465  00000-0  11009-3 0  9991,2 53568  53.2158  98.9755 0001541  95.9627 264.1540 15.08846153 62455,6917.862,95.437,540.793,538.661,0.0
53568.0,STARLINK-4583,PAYLOAD,2023-09-29 17:52:24,15.08846696,0.0001521,53.2162,98.0835,98.697,261.4195,0.00011922,1.61e-05,0.0,0 STARLINK-4583,1 53568U 22101AT  23272.74472357  .00001610  00000-0  11922-3 0  9994,2 53568  53.2162  98.0835 0001521  98.6970 261.4195 15.08846696 62480,6917.86,95.437,540.777,538.673,0.0
53568.0,STARLINK-4583,PAYLOAD,2023-09-30 17:43:11,15.08839669,0.0001485,53.2168,93.6246,98.5056,261.6104,-4.1149e-05,-9.43e-06,0.0,0 STARLINK-4583,1 53568U 22101AT  23273.73832503 -.00000943  00000-0 -41149-4 0  9992,2 53568  53.2168  93.6246 0001485  98.5056 261.6104 15.08839669 61940,6917.881,95.438,540.774,538.719,0.0
53568.0,STARLINK-4583,PAYLOAD,2023-10-01 11:12:25,15.08840714,0.0001415,53.2181,90.3542,92.8397,267.2758,8.3496e-05,1.041e-05,0.0,0 STARLINK-4583,1 53568U 22101AT  23274.46696631  .00001041  00000-0  83496-4 0  9992,2 53568  53.2181  90.3542 0001415  92.8397 267.2758 15.08840714 62745,6917.878,95.438,540.722,538.764,0.0
53568.0,STARLINK-4583,PAYLOAD,2023-10-01 19:09:21,15.08842078,0.0001395,53.2179,88.8671,90.7333,269.3819,8.1015e-05,1.002e-05,0.0,0 STARLINK-4583,1 53568U 22101AT  23274.79816538  .00001002  00000-0  81015-4 0  9990,2 53568  53.2179  88.8671 0001395  90.7333 269.3819 15.08842078 62792,6917.874,95.437,540.704,538.774,0.0
